COMMENT,ORIGINATOR,NORAD_CAT_ID,OBJECT_NAME,OBJECT_TYPE,CLASSIFICATION_TYPE,INTLDES,EPOCH,EPOCH_MICROSECONDS,MEAN_MOTION,ECCENTRICITY,INCLINATION,RA_OF_ASC_NODE,ARG_OF_PERICENTER,MEAN_ANOMALY,EPHEMERIS_TYPE,ELEMENT_SET_NO,REV_AT_EPOCH,BSTAR,MEAN_MOTION_DOT,MEAN_MOTION_DDOT,FILE,TLE_LINE0,TLE_LINE1,TLE_LINE2,OBJECT_ID,OBJECT_NUMBER,SEMIMAJOR_AXIS,PERIOD,APOGEE,PERIGEE,DECAYED,date
GENERATED VIA SPACETRACK.ORG API,18 SPCS,48899,SPACEBEE-110,PAYLOAD,U,21059W,2023/2/25 8:25,217280,15.24334339,0.0008648,97.5813,191.8465,299.2408,60.7964,0,999,9234,0.0010435,0.00025544,0,3837605,0 SPACEBEE-110,1 48899U 21059W   23056.35112520  .00025544  00000-0  10435-2 0  9995,2 48899  97.5813 191.8465 0008648 299.2408  60.7964 15.24334339 92344,2021-059W,48899,6870.922,94.467,498.729,486.845,0,2023/4/26
GENERATED VIA SPACETRACK.ORG API,18 SPCS,48899,SPACEBEE-110,PAYLOAD,U,21059W,2023/2/25 21:01,147040,15.24365001,0.000866,97.5812,192.3776,296.9316,63.1036,0,999,9242,0.001233,0.00030242,0,3839003,0 SPACEBEE-110,1 48899U 21059W   23056.87627485  .00030242  00000-0  12330-2 0  9990,2 48899  97.5812 192.3776 0008660 296.9316  63.1036 15.24365001 92426,2021-059W,48899,6870.83,94.466,498.645,486.745,0,2023/4/27
GENERATED VIA SPACETRACK.ORG API,18 SPCS,48899,SPACEBEE-110,PAYLOAD,U,21059W,2023/2/26 8:03,636864,15.2439558,0.000871,97.5811,192.8426,295.5614,64.4722,0,999,9249,0.0013999,0.00034397,0,3841348,0 SPACEBEE-110,1 48899U 21059W   23057.33577126  .00034397  00000-0  13999-2 0  9995,2 48899  97.5811 192.8426 0008710 295.5614  64.4722 15.24395580 92492,2021-059W,48899,6870.738,94.464,498.587,486.619,0,2023/4/28
GENERATED VIA SPACETRACK.ORG API,18 SPCS,48899,SPACEBEE-110,PAYLOAD,U,21059W,2023/2/26 8:03,636864,15.2439558,0.000871,97.5811,192.8426,295.5614,64.4722,0,999,9249,0.0013999,0.00034397,0,3841853,0 SPACEBEE-110,1 48899U 21059W   23057.33577126  .00034397  00000-0  13999-2 0  9995,2 48899  97.5811 192.8426 0008710 295.5614  64.4722 15.24395580 92492,2021-059W,48899,6870.738,94.464,498.587,486.619,0,2023/4/29
GENERATED VIA SPACETRACK.ORG API,18 SPCS,48899,SPACEBEE-110,PAYLOAD,U,21059W,2023/2/27 7:41,377536,15.24471234,0.0008731,97.5808,193.8386,292.1875,67.8435,0,999,9264,0.0017967,0.00044326,0,3846396,0 SPACEBEE-110,1 48899U 21059W   23058.32037474  .00044326  00000-0  17967-2 0  9994,2 48899  97.5808 193.8386 0008731 292.1875  67.8435 15.24471234 92645,2021-059W,48899,6870.511,94.459,498.374,486.377,0,2023/4/30
GENERATED VIA SPACETRACK.ORG API,18 SPCS,48899,SPACEBEE-110,PAYLOAD,U,21059W,2023/2/27 7:41,377536,15.24471234,0.0008731,97.5808,193.8386,292.1875,67.8435,0,999,9264,0.0017967,0.00044326,0,3846732,0 SPACEBEE-110,1 48899U 21059W   23058.32037474  .00044326  00000-0  17967-2 0  9994,2 48899  97.5808 193.8386 0008731 292.1875  67.8435 15.24471234 92645,2021-059W,48899,6870.511,94.459,498.374,486.377,0,
GENERATED VIA SPACETRACK.ORG API,18 SPCS,48899,SPACEBEE-110,PAYLOAD,U,21059W,2023/2/28 8:53,805120,15.24573036,0.0008665,97.5808,194.9013,288.5142,71.5153,0,999,9280,0.0018157,0.00044935,0,3847542,0 SPACEBEE-110,1 48899U 21059W   23059.37055330  .00044935  00000-0  18157-2 0  9999,2 48899  97.5808 194.9013 0008665 288.5142  71.5153 15.24573036 92806,2021-059W,48899,6870.205,94.453,498.023,486.117,0,
GENERATED VIA SPACETRACK.ORG API,18 SPCS,48899,SPACEBEE-110,PAYLOAD,U,21059W,2023/2/28 8:53,805120,15.24573036,0.0008665,97.5808,194.9013,288.5142,71.5153,0,999,9280,0.0018157,0.00044935,0,3847604,0 SPACEBEE-110,1 48899U 21059W   23059.37055330  .00044935  00000-0  18157-2 0  9999,2 48899  97.5808 194.9013 0008665 288.5142  71.5153 15.24573036 92806,2021-059W,48899,6870.205,94.453,498.023,486.117,0,
GENERATED VIA SPACETRACK.ORG API,18 SPCS,48899,SPACEBEE-110,PAYLOAD,U,21059W,2023/2/28 21:29,518752,15.24605466,0.000863,97.581,195.4329,286.5016,73.5273,0,999,9288,0.0011968,0.00029561,0,3847656,0 SPACEBEE-110,1 48899U 21059W   23059.89561943  .00029561  00000-0  11968-2 0  9999,2 48899  97.5810 195.4329 0008630 286.5016  73.5273 15.24605466 92881,2021-059W,48899,6870.107,94.451,497.901,486.043,0,
GENERATED VIA SPACETRACK.ORG API,18 SPCS,48899,SPACEBEE-110,PAYLOAD,U,21059W,2023/2/28 21:29,518752,15.24605466,0.000863,97.581,195.4329,286.5016,73.5273,0,999,9288,0.0011968,0.00029561,0,3848211,0 SPACEBEE-110,1 48899U 21059W   23059.89561943  .00029561  00000-0  11968-2 0  9999,2 48899  97.5810 195.4329 0008630 286.5016  73.5273 15.24605466 92881,2021-059W,48899,6870.107,94.451,497.901,486.043,0,
GENERATED VIA SPACETRACK.ORG API,18 SPCS,48899,SPACEBEE-110,PAYLOAD,U,21059W,2023/3/1 14:49,596128,15.24657303,0.0008594,97.5809,196.1637,284.016,76.0121,0,999,9299,0.001304,0.00032276,0,3848767,0 SPACEBEE-110,1 48899U 21059W   23060.61756477  .00032276  00000-0  13040-2 0  9999,2 48899  97.5809 196.1637 0008594 284.0160  76.0121 15.24657303 92990,2021-059W,48899,6869.952,94.447,497.721,485.913,0,
GENERATED VIA SPACETRACK.ORG API,18 SPCS,48899,SPACEBEE-110,PAYLOAD,U,21059W,2023/3/1 21:07,334496,15.24673183,0.000866,97.581,196.4295,283.5385,76.4887,0,999,9303,0.0011643,0.00028811,0,3848834,0 SPACEBEE-110,1 48899U 21059W   23060.88008489  .00028811  00000-0  11643-2 0  9998,2 48899  97.5810 196.4295 0008660 283.5385  76.4887 15.24673183 93035,2021-059W,48899,6869.904,94.446,497.718,485.82,0,
GENERATED VIA SPACETRACK.ORG API,18 SPCS,48899,SPACEBEE-110,PAYLOAD,U,21059W,2023/3/2 19:10,280384,15.24740002,0.0008786,97.5807,197.3591,280.7904,79.2344,0,999,9317,0.0014307,0.00035524,0,3849487,0 SPACEBEE-110,1 48899U 21059W   23061.79888056  .00035524  00000-0  14307-2 0  9994,2 48899  97.5807 197.3591 0008786 280.7904  79.2344 15.24740002 93174,2021-059W,48899,6869.703,94.442,497.604,485.533,0,
GENERATED VIA SPACETRACK.ORG API,18 SPCS,48899,SPACEBEE-110,PAYLOAD,U,21059W,2023/3/3 7:46,821248,15.24791472,0.0008748,97.5814,197.8911,278.2884,81.7361,0,999,9325,0.0019364,0.00048262,0,3849953,0 SPACEBEE-110,1 48899U 21059W   23062.32388682  .00048262  00000-0  19364-2 0  9995,2 48899  97.5814 197.8911 0008748 278.2884  81.7361 15.24791472 93253,2021-059W,48899,6869.549,94.439,497.423,485.404,0,
GENERATED VIA SPACETRACK.ORG API,18 SPCS,48899,SPACEBEE-110,PAYLOAD,U,21059W,2023/3/3 7:46,821248,15.24791472,0.0008748,97.5814,197.8911,278.2884,81.7361,0,999,9325,0.0019364,0.00048262,0,3850163,0 SPACEBEE-110,1 48899U 21059W   23062.32388682  .00048262  00000-0  19364-2 0  9995,2 48899  97.5814 197.8911 0008748 278.2884  81.7361 15.24791472 93253,2021-059W,48899,6869.549,94.439,497.423,485.404,0,
GENERATED VIA SPACETRACK.ORG API,18 SPCS,48899,SPACEBEE-110,PAYLOAD,U,21059W,2023/3/3 20:22,940832,15.24837181,0.0008741,97.5817,198.4228,276.5999,83.4243,0,999,9333,0.0017752,0.00044275,0,3850400,0 SPACEBEE-110,1 48899U 21059W   23062.84887663  .00044275  00000-0  17752-2 0  9994,2 48899  97.5817 198.4228 0008741 276.5999  83.4243 15.24837181 93330,2021-059W,48899,6869.411,94.436,497.281,485.272,0,
GENERATED VIA SPACETRACK.ORG API,18 SPCS,48899,SPACEBEE-110,PAYLOAD,U,21059W,2023/3/4 7:23,915616,15.24884695,0.0008718,97.5816,198.8876,274.8876,85.1366,0,999,9340,0.0020109,0.00050275,0,3851072,0 SPACEBEE-110,1 48899U 21059W   23063.30822819  .00050275  00000-0  20109-2 0  9995,2 48899  97.5816 198.8876 0008718 274.8876  85.1366 15.24884695 93406,2021-059W,48899,6869.269,94.433,497.122,485.145,0,
GENERATED VIA SPACETRACK.ORG API,18 SPCS,48899,SPACEBEE-110,PAYLOAD,U,21059W,2023/3/4 19:59,234976,15.2493038,0.0008704,97.5819,199.4193,273.0847,86.9394,0,999,9348,0.0017456,0.00043653,0,3851307,0 SPACEBEE-110,1 48899U 21059W   23063.83318559  .00043653  00000-0  17456-2 0  9997,2 48899  97.5819 199.4193 0008704 273.0847  86.9394 15.24930380 93483,2021-059W,48899,6869.131,94.431,496.975,485.018,0,
GENERATED VIA SPACETRACK.ORG API,18 SPCS,48899,SPACEBEE-110,PAYLOAD,U,21059W,2023/3/4 19:59,234976,15.2493038,0.0008704,97.5819,199.4193,273.0847,86.9394,0,999,9348,0.0017456,0.00043653,0,3851350,0 SPACEBEE-110,1 48899U 21059W   23063.83318559  .00043653  00000-0  17456-2 0  9997,2 48899  97.5819 199.4193 0008704 273.0847  86.9394 15.24930380 93483,2021-059W,48899,6869.131,94.431,496.975,485.018,0,
GENERATED VIA SPACETRACK.ORG API,18 SPCS,48899,SPACEBEE-110,PAYLOAD,U,21059W,2023/3/5 8:35,124416,15.24980887,0.0008731,97.5819,199.9509,271.2776,88.7461,0,999,9356,0.0019051,0.00047747,0,3851939,0 SPACEBEE-110,1 48899U 21059W   23064.35812644  .00047747  00000-0  19051-2 0  9990,2 48899  97.5819 199.9509 0008731 271.2776  88.7461 15.24980887 93561,2021-059W,48899,6868.98,94.427,496.842,484.848,0,
GENERATED VIA SPACETRACK.ORG API,18 SPCS,48899,SPACEBEE-110,PAYLOAD,U,21059W,2023/3/5 21:11,426688,15.25034982,0.0008758,97.5818,200.4824,269.5804,90.4429,0,999,9364,0.0019691,0.00049445,0,3852206,0 SPACEBEE-110,1 48899U 21059W   23064.88304892  .00049445  00000-0  19691-2 0  9996,2 48899  97.5818 200.4824 0008758 269.5804  90.4429 15.25034982 93649,2021-059W,48899,6868.817,94.424,496.698,484.667,0,
GENERATED VIA SPACETRACK.ORG API,18 SPCS,48899,SPACEBEE-110,PAYLOAD,U,21059W,2023/3/5 21:11,426688,15.25034982,0.0008758,97.5818,200.4824,269.5804,90.4429,0,999,9364,0.0019691,0.00049445,0,3852256,0 SPACEBEE-110,1 48899U 21059W   23064.88304892  .00049445  00000-0  19691-2 0  9996,2 48899  97.5818 200.4824 0008758 269.5804  90.4429 15.25034982 93649,2021-059W,48899,6868.817,94.424,496.698,484.667,0,
GENERATED VIA SPACETRACK.ORG API,18 SPCS,48899,SPACEBEE-110,PAYLOAD,U,21059W,2023/3/6 14:30,631360,15.25104765,0.0008812,97.5818,201.2135,267.1537,92.8692,0,999,9375,0.0018308,0.00046042,0,3853141,0 SPACEBEE-110,1 48899U 21059W   23065.60478740  .00046042  00000-0  18308-2 0  9995,2 48899  97.5818 201.2135 0008812 267.1537  92.8692 15.25104765 93758,2021-059W,48899,6868.608,94.42,496.525,484.42,0,
